CTC2_L_00283016-03
1 10062U 25511OT  26075.70043981  .00000000  00000+0  00000-0 0  9994
2 10062  85.0000 180.0000 0000000   0.0000   0.0000 13.89609395    17
CTC2_L_00283016-04
1 10063U 25064DP  26075.70043981  .00000000  00000+0  00000-0 0  9998
2 10063  85.0000 180.0000 0000000   0.0000  90.0000 13.89609395    17
CTC2_L_00283017-01
1 10064U 26345TN  26075.70043981  .00000000  00000+0  00000-0 0  9992
2 10064  85.0000 192.0000 0000000   0.0000 192.0000 13.89609395    14
CTC2_L_00283017-02
1 10065U 23933CL  26075.70043981  .00000000  00000+0  00000-0 0  9993
2 10065  85.0000 192.0000 0000000   0.0000 282.0000 13.89609395    15
CTC2_L_00283017-03
1 10066U 22314VW  26075.70043981  .00000000  00000+0  00000-0 0  9996
2 10066  85.0000 192.0000 0000000   0.0000  12.0000 13.89609395    17
CTC2_L_00283017-04
1 10067U 26860JO  26075.70043981  .00000000  00000+0  00000-0 0  9997
2 10067  85.0000 192.0000 0000000   0.0000 102.0000 13.89609395    18
CTC2_L_00283018-01
1 10068U 25811PL  26075.70043981  .00000000  00000+0  00000-0 0  9993
2 10068  85.0000 204.0000 0000000   0.0000 204.0000 13.89609395    16
CTC2_L_00283018-02
1 10069U 25186RS  26075.70043981  .00000000  00000+0  00000-0 0  9999
2 10069  85.0000 204.0000 0000000   0.0000 294.0000 13.89609395    16
CTC2_L_00283018-03
1 10070U 23745KP  26075.70043981  .00000000  00000+0  00000-0 0  9990
2 10070  85.0000 204.0000 0000000   0.0000  24.0000 13.89609395    19
CTC2_L_00283018-04
1 10071U 26961OW  26075.70043981  .00000000  00000+0  00000-0 0  9994
2 10071  85.0000 204.0000 0000000   0.0000 114.0000 13.89609395    10
CTC2_L_00283019-01
1 10072U 22827GW  26075.70043981  .00000000  00000+0  00000-0 0  9992
2 10072  85.0000 216.0000 0000000   0.0000 216.0000 13.89609395    17
CTC2_L_00283019-02
1 10073U 22331MI  26075.70043981  .00000000  00000+0  00000-0 0  9993
2 10073  85.0000 216.0000 0000000   0.0000 306.0000 13.89609395    18
CTC2_L_00283019-03
1 10074U 26798GT  26075.70043981  .00000000  00000+0  00000-0 0  9995
2 10074  85.0000 216.0000 0000000   0.0000  36.0000 13.89609395    19
CTC2_L_00283019-04
1 10075U 22844KV  26075.70043981  .00000000  00000+0  00000-0 0  9994
2 10075  85.0000 216.0000 0000000   0.0000 126.0000 13.89609395    10
CTC2_L_00283020-01
1 10076U 22470ZN  26075.70043981  .00000000  00000+0  00000-0 0  9990
2 10076  85.0000 228.0000 0000000   0.0000 228.0000 13.89609395    17
CTC2_L_00283020-02
1 10077U 26448IK  26075.70043981  .00000000  00000+0  00000-0 0  9990
2 10077  85.0000 228.0000 0000000   0.0000 318.0000 13.89609395    18
CTC2_L_00283020-03
1 10078U 22621XR  26075.70043981  .00000000  00000+0  00000-0 0  9990
2 10078  85.0000 228.0000 0000000   0.0000  48.0000 13.89609395    19
CTC2_L_00283020-04
1 10079U 26826BP  26075.70043981  .00000000  00000+0  00000-0 0  9992
2 10079  85.0000 228.0000 0000000   0.0000 138.0000 13.89609395    10
CTC2_L_00283021-01
1 10080U 22518QI  26075.70043981  .00000000  00000+0  00000-0 0  9998
2 10080  85.0000 240.0000 0000000   0.0000 240.0000 13.89609395    10
CTC2_L_00283021-02
1 10081U 23968DG  26075.70043981  .00000000  00000+0  00000-0 0  9999
2 10081  85.0000 240.0000 0000000   0.0000 330.0000 13.89609395    11
CTC2_L_00283021-03
1 10082U 26108FS  26075.70043981  .00000000  00000+0  00000-0 0  9999
2 10082  85.0000 240.0000 0000000   0.0000  60.0000 13.89609395    12
CTC2_L_00283021-04
1 10083U 24179CI  26075.70043981  .00000000  00000+0  00000-0 0  9996
2 10083  85.0000 240.0000 0000000   0.0000 150.0000 13.89609395    13
CTC2_L_00283022-01
1 10084U 26106I   26075.70043981  .00000000  00000+0  00000-0 0  9999
2 10084  85.0000 252.0000 0000000   0.0000 252.0000 13.89609395    10
CTC2_L_00283022-02
1 10085U 23029LX  26075.70043981  .00000000  00000+0  00000-0 0  9991
2 10085  85.0000 252.0000 0000000   0.0000 342.0000 13.89609395    11
CTC2_L_00283022-03
1 10086U 25405GG  26075.70043981  .00000000  00000+0  00000-0 0  9992
2 10086  85.0000 252.0000 0000000   0.0000  72.0000 13.89609395    12
CTC2_L_00283022-04
1 10087U 25195QC  26075.70043981  .00000000  00000+0  00000-0 0  9999
2 10087  85.0000 252.0000 0000000   0.0000 162.0000 13.89609395    13
CTC2_L_00283023-01
1 10088U 22265BA  26075.70043981  .00000000  00000+0  00000-0 0  9995
2 10088  85.0000 264.0000 0000000   0.0000 264.0000 13.89609395    10
CTC2_L_00283023-02
1 10089U 24353YF  26075.70043981  .00000000  00000+0  00000-0 0  9996
2 10089  85.0000 264.0000 0000000   0.0000 354.0000 13.89609395    11
CTC2_L_00283023-03
1 10090U 26318VA  26075.70043981  .00000000  00000+0  00000-0 0  9991
2 10090  85.0000 264.0000 0000000   0.0000  84.0000 13.89609395    13
CTC2_L_00283023-04
1 10091U 24360HO  26075.70043981  .00000000  00000+0  00000-0 0  9997
2 10091  85.0000 264.0000 0000000   0.0000 174.0000 13.89609395    14
CTC2_L_00283024-01
1 10092U 23804PW  26075.70043981  .00000000  00000+0  00000-0 0  9990
2 10092  85.0000 276.0000 0000000   0.0000 276.0000 13.89609395    11
CTC2_L_00283024-02
1 10093U 22508HR  26075.70043981  .00000000  00000+0  00000-0 0  9991
2 10093  85.0000 276.0000 0000000   0.0000   6.0000 13.89609395    13
CTC2_L_00283024-03
1 10094U 22091TJ  26075.70043981  .00000000  00000+0  00000-0 0  9999
2 10094  85.0000 276.0000 0000000   0.0000  96.0000 13.89609395    13
CTC2_L_00283024-04
1 10095U 25046MO  26075.70043981  .00000000  00000+0  00000-0 0  9993
2 10095  85.0000 276.0000 0000000   0.0000 186.0000 13.89609395    14
CTC2_L_00283025-01
1 10096U 22021VX  26075.70043981  .00000000  00000+0  00000-0 0  9994
2 10096  85.0000 288.0000 0000000   0.0000 288.0000 13.89609395    11
CTC2_L_00283025-02
1 10097U 23977QP  26075.70043981  .00000000  00000+0  00000-0 0  9996
2 10097  85.0000 288.0000 0000000   0.0000  18.0000 13.89609395    13
CTC2_L_00283025-03
1 10098U 26526QX  26075.70043981  .00000000  00000+0  00000-0 0  9990
2 10098  85.0000 288.0000 0000000   0.0000 108.0000 13.89609395    14
CTC2_L_00283025-04
1 10099U 23005VV  26075.70043981  .00000000  00000+0  00000-0 0  9990
2 10099  85.0000 288.0000 0000000   0.0000 198.0000 13.89609395    14
CTC2_L_00283026-01
1 10100U 26950IY  26075.70043981  .00000000  00000+0  00000-0 0  9995
2 10100  85.0000 300.0000 0000000   0.0000 300.0000 13.89609395    17
CTC2_L_00283026-02
1 10101U 24639TH  26075.70043981  .00000000  00000+0  00000-0 0  9998
2 10101  85.0000 300.0000 0000000   0.0000  30.0000 13.89609395    18
CTC2_L_00283026-03
1 10102U 26516JH  26075.70043981  .00000000  00000+0  00000-0 0  9995
2 10102  85.0000 300.0000 0000000   0.0000 120.0000 13.89609395    19
CTC2_L_00283026-04
1 10103U 26513DH  26075.70043981  .00000000  00000+0  00000-0 0  9993
2 10103  85.0000 300.0000 0000000   0.0000 210.0000 13.89609395    10
CTC2_L_00283027-01
1 10104U 24440XB  26075.70043981  .00000000  00000+0  00000-0 0  9991
2 10104  85.0000 312.0000 0000000   0.0000 312.0000 13.89609395    17
CTC2_L_00283027-02
1 10105U 26298TW  26075.70043981  .00000000  00000+0  00000-0 0  9995
2 10105  85.0000 312.0000 0000000   0.0000  42.0000 13.89609395    18
CTC2_L_00283027-03
1 10106U 26856NH  26075.70043981  .00000000  00000+0  00000-0 0  9996
2 10106  85.0000 312.0000 0000000   0.0000 132.0000 13.89609395    19
CTC2_L_00283027-04
1 10107U 25184DC  26075.70043981  .00000000  00000+0  00000-0 0  9990
2 10107  85.0000 312.0000 0000000   0.0000 222.0000 13.89609395    10
CTC2_L_00283028-01
1 10108U 24271WQ  26075.70043981  .00000000  00000+0  00000-0 0  9997
2 10108  85.0000 324.0000 0000000   0.0000 324.0000 13.89609395    17
CTC2_L_00283028-02
1 10109U 23055HN  26075.70043981  .00000000  00000+0  00000-0 0  9997
2 10109  85.0000 324.0000 0000000   0.0000  54.0000 13.89609395    18
CTC2_L_00283028-03
1 10110U 26272FH  26075.70043981  .00000000  00000+0  00000-0 0  9993
2 10110  85.0000 324.0000 0000000   0.0000 144.0000 13.89609395    10
CTC2_L_00283028-04
1 10111U 24654MG  26075.70043981  .00000000  00000+0  00000-0 0  9996
2 10111  85.0000 324.0000 0000000   0.0000 234.0000 13.89609395    11
CTC2_L_00283029-01
1 10112U 24336PI  26075.70043981  .00000000  00000+0  00000-0 0  9994
2 10112  85.0000 336.0000 0000000   0.0000 336.0000 13.89609395    18
CTC2_L_00283029-02
1 10113U 22114LK  26075.70043981  .00000000  00000+0  00000-0 0  9997
2 10113  85.0000 336.0000 0000000   0.0000  66.0000 13.89609395    19
CTC2_L_00283029-03
1 10114U 24062ET  26075.70043981  .00000000  00000+0  00000-0 0  9992
2 10114  85.0000 336.0000 0000000   0.0000 156.0000 13.89609395    10
CTC2_L_00283029-04
1 10115U 22955YO  26075.70043981  .00000000  00000+0  00000-0 0  9992
2 10115  85.0000 336.0000 0000000   0.0000 246.0000 13.89609395    11
CTC2_L_00283030-01
1 10116U 26857CY  26075.70043981  .00000000  00000+0  00000-0 0  9998
2 10116  85.0000 348.0000 0000000   0.0000 348.0000 13.89609395    18
CTC2_L_00283030-02
1 10117U 23247AC  26075.70043981  .00000000  00000+0  00000-0 0  9999
2 10117  85.0000 348.0000 0000000   0.0000  78.0000 13.89609395    19
CTC2_L_00283030-03
1 10118U 25037RA  26075.70043981  .00000000  00000+0  00000-0 0  9999
2 10118  85.0000 348.0000 0000000   0.0000 168.0000 13.89609395    10
CTC2_L_00283030-04
1 10119U 25486UN  26075.70043981  .00000000  00000+0  00000-0 0  9998
2 10119  85.0000 348.0000 0000000   0.0000 258.0000 13.89609395    11
